STARLINK-35657          
1 66399U 25257V   25332.00002315 -.02027750  00000+0 -32923-1 0  9994
2 66399  53.1595 334.2918 0001313  83.1513 321.2817 15.55267048  4126
STARLINK-35667          
1 66400U 25257W   25332.00002315 -.02028048  00000+0 -32930-1 0  9996
2 66400  53.1596 334.2830 0001161  89.1741 319.0940 15.55267395  4120
STARLINK-35668          
1 66401U 25257X   25332.00002315 -.02025976  00000+0 -32892-1 0  9991
2 66401  53.1602 334.2793 0001202  79.2146 330.9681 15.55267345  4121
STARLINK-35644          
1 66402U 25257Y   25332.00002315 -.02028416  00000+0 -32936-1 0  9993
2 66402  53.1599 334.2873 0001125  86.9787 319.3715 15.55268450  4123
STARLINK-35602          
1 66403U 25257Z   25332.00002315 -.02025798  00000+0 -32891-1 0  9994
2 66403  53.1598 334.2751 0001129  93.4906 318.6121 15.55266108  4129
STARLINK-35691          
1 66404U 25257AA  25332.00002315 -.02021454  00000+0 -32814-1 0  9995
2 66404  53.1596 334.2705 0001286  79.7003 334.3183 15.55263591  4122
STARLINK-35683          
1 66405U 25257AB  25332.00002315 -.02013110  00000+0 -32668-1 0  9993
2 66405  53.1595 334.2660 0001185  81.2833 334.6532 15.55259843  3966
STARLINK-34840          
1 66406U 25257AC  25332.00002315 -.02020393  00000+0 -32797-1 0  9998
2 66406  53.1594 334.2548 0001160  88.6763 333.0117 15.55262880  4066
STARLINK-35686          
1 66407U 25257AD  25332.00002315 -.02014374  00000+0 -32690-1 0  9993
2 66407  53.1592 334.2620 0001188  83.9506 333.9033 15.55260401  4129
STARLINK-35679          
1 66408U 25257AE  25332.00002315 -.02016416  00000+0 -32725-1 0  9992
2 66408  53.1591 334.2590 0001099  83.4394 336.3297 15.55262809  4129
CHUTIAN-2 A             
1 66409U 25256A   25331.95763264  .00000059  00000+0  26672-4 0  9991
2 66409  98.2783  36.9797 0012858 223.5239 136.4941 14.49907048  2731
CHUTIAN-2 B             
1 66410U 25256B   25332.01904486  .00000771  00000+0  20608-3 0  9997
2 66410  98.2812  37.0633 0012990 227.5261 132.4837 14.50994432  2749
