CCSDS_OMM_VERS = 2.0
CREATION_DATE  = 
ORIGINATOR     = 

OBJECT_NAME    = STARLINK-35657
OBJECT_ID      = 2025-257V
CENTER_NAME    = EARTH
REF_FRAME      = TEME
TIME_SYSTEM    = UTC
MEAN_ELEMENT_THEORY = SGP/SGP4

EPOCH          = 2025-11-28T00:00:02.000160
MEAN_MOTION    = 15.55267048
ECCENTRICITY   = .00013132
INCLINATION    = 53.1595
RA_OF_ASC_NODE = 334.2918
ARG_OF_PERICENTER = 83.1513
MEAN_ANOMALY   = 321.2817

EPHEMERIS_TYPE = 0
CLASSIFICATION_TYPE = U
NORAD_CAT_ID   = 66399
ELEMENT_SET_NO = 999
REV_AT_EPOCH   = 412
BSTAR          = -.32923481E-1
MEAN_MOTION_DOT = -.202775E-1
MEAN_MOTION_DDOT = 0

CCSDS_OMM_VERS = 2.0
CREATION_DATE  = 
ORIGINATOR     = 

OBJECT_NAME    = STARLINK-35667
OBJECT_ID      = 2025-257W
CENTER_NAME    = EARTH
REF_FRAME      = TEME
TIME_SYSTEM    = UTC
MEAN_ELEMENT_THEORY = SGP/SGP4

EPOCH          = 2025-11-28T00:00:02.000160
MEAN_MOTION    = 15.55267395
ECCENTRICITY   = .00011616
INCLINATION    = 53.1596
RA_OF_ASC_NODE = 334.2830
ARG_OF_PERICENTER = 89.1741
MEAN_ANOMALY   = 319.0940

EPHEMERIS_TYPE = 0
CLASSIFICATION_TYPE = U
NORAD_CAT_ID   = 66400
ELEMENT_SET_NO = 999
REV_AT_EPOCH   = 412
BSTAR          = -.32930148E-1
MEAN_MOTION_DOT = -.2028048E-1
MEAN_MOTION_DDOT = 0

CCSDS_OMM_VERS = 2.0
CREATION_DATE  = 
ORIGINATOR     = 

OBJECT_NAME    = STARLINK-35668
OBJECT_ID      = 2025-257X
CENTER_NAME    = EARTH
REF_FRAME      = TEME
TIME_SYSTEM    = UTC
MEAN_ELEMENT_THEORY = SGP/SGP4

EPOCH          = 2025-11-28T00:00:02.000160
MEAN_MOTION    = 15.55267345
ECCENTRICITY   = .00012028
INCLINATION    = 53.1602
RA_OF_ASC_NODE = 334.2793
ARG_OF_PERICENTER = 79.2146
MEAN_ANOMALY   = 330.9681

EPHEMERIS_TYPE = 0
CLASSIFICATION_TYPE = U
NORAD_CAT_ID   = 66401
ELEMENT_SET_NO = 999
REV_AT_EPOCH   = 412
BSTAR          = -.32892138E-1
MEAN_MOTION_DOT = -.2025976E-1
MEAN_MOTION_DDOT = 0

CCSDS_OMM_VERS = 2.0
CREATION_DATE  = 
ORIGINATOR     = 

OBJECT_NAME    = STARLINK-35644
OBJECT_ID      = 2025-257Y
CENTER_NAME    = EARTH
REF_FRAME      = TEME
TIME_SYSTEM    = UTC
MEAN_ELEMENT_THEORY = SGP/SGP4

EPOCH          = 2025-11-28T00:00:02.000160
MEAN_MOTION    = 15.55268450
ECCENTRICITY   = .00011253
INCLINATION    = 53.1599
RA_OF_ASC_NODE = 334.2873
ARG_OF_PERICENTER = 86.9787
MEAN_ANOMALY   = 319.3715

EPHEMERIS_TYPE = 0
CLASSIFICATION_TYPE = U
NORAD_CAT_ID   = 66402
ELEMENT_SET_NO = 999
REV_AT_EPOCH   = 412
BSTAR          = -.32935949E-1
MEAN_MOTION_DOT = -.2028416E-1
MEAN_MOTION_DDOT = 0

CCSDS_OMM_VERS = 2.0
CREATION_DATE  = 
ORIGINATOR     = 

OBJECT_NAME    = STARLINK-35602
OBJECT_ID      = 2025-257Z
CENTER_NAME    = EARTH
REF_FRAME      = TEME
TIME_SYSTEM    = UTC
MEAN_ELEMENT_THEORY = SGP/SGP4

EPOCH          = 2025-11-28T00:00:02.000160
MEAN_MOTION    = 15.55266108
ECCENTRICITY   = .00011299
INCLINATION    = 53.1598
RA_OF_ASC_NODE = 334.2751
ARG_OF_PERICENTER = 93.4906
MEAN_ANOMALY   = 318.6121

EPHEMERIS_TYPE = 0
CLASSIFICATION_TYPE = U
NORAD_CAT_ID   = 66403
ELEMENT_SET_NO = 999
REV_AT_EPOCH   = 412
BSTAR          = -.32891206E-1
MEAN_MOTION_DOT = -.2025798E-1
MEAN_MOTION_DDOT = 0

CCSDS_OMM_VERS = 2.0
CREATION_DATE  = 
ORIGINATOR     = 

OBJECT_NAME    = STARLINK-35691
OBJECT_ID      = 2025-257AA
CENTER_NAME    = EARTH
REF_FRAME      = TEME
TIME_SYSTEM    = UTC
MEAN_ELEMENT_THEORY = SGP/SGP4

EPOCH          = 2025-11-28T00:00:02.000160
MEAN_MOTION    = 15.55263591
ECCENTRICITY   = .00012867
INCLINATION    = 53.1596
RA_OF_ASC_NODE = 334.2705
ARG_OF_PERICENTER = 79.7003
MEAN_ANOMALY   = 334.3183

EPHEMERIS_TYPE = 0
CLASSIFICATION_TYPE = U
NORAD_CAT_ID   = 66404
ELEMENT_SET_NO = 999
REV_AT_EPOCH   = 412
BSTAR          = -.32813685E-1
MEAN_MOTION_DOT = -.2021454E-1
MEAN_MOTION_DDOT = 0

CCSDS_OMM_VERS = 2.0
CREATION_DATE  = 
ORIGINATOR     = 

OBJECT_NAME    = STARLINK-35683
OBJECT_ID      = 2025-257AB
CENTER_NAME    = EARTH
REF_FRAME      = TEME
TIME_SYSTEM    = UTC
MEAN_ELEMENT_THEORY = SGP/SGP4

EPOCH          = 2025-11-28T00:00:02.000160
MEAN_MOTION    = 15.55259843
ECCENTRICITY   = .00011853
INCLINATION    = 53.1595
RA_OF_ASC_NODE = 334.2660
ARG_OF_PERICENTER = 81.2833
MEAN_ANOMALY   = 334.6532

EPHEMERIS_TYPE = 0
CLASSIFICATION_TYPE = U
NORAD_CAT_ID   = 66405
ELEMENT_SET_NO = 999
REV_AT_EPOCH   = 396
BSTAR          = -.32667964E-1
MEAN_MOTION_DOT = -.201311E-1
MEAN_MOTION_DDOT = 0

CCSDS_OMM_VERS = 2.0
CREATION_DATE  = 
ORIGINATOR     = 

OBJECT_NAME    = STARLINK-34840
OBJECT_ID      = 2025-257AC
CENTER_NAME    = EARTH
REF_FRAME      = TEME
TIME_SYSTEM    = UTC
MEAN_ELEMENT_THEORY = SGP/SGP4

EPOCH          = 2025-11-28T00:00:02.000160
MEAN_MOTION    = 15.55262880
ECCENTRICITY   = .00011606
INCLINATION    = 53.1594
RA_OF_ASC_NODE = 334.2548
ARG_OF_PERICENTER = 88.6763
MEAN_ANOMALY   = 333.0117

EPHEMERIS_TYPE = 0
CLASSIFICATION_TYPE = U
NORAD_CAT_ID   = 66406
ELEMENT_SET_NO = 999
REV_AT_EPOCH   = 406
BSTAR          = -.32796667E-1
MEAN_MOTION_DOT = -.2020393E-1
MEAN_MOTION_DDOT = 0

CCSDS_OMM_VERS = 2.0
CREATION_DATE  = 
ORIGINATOR     = 

OBJECT_NAME    = STARLINK-35686
OBJECT_ID      = 2025-257AD
CENTER_NAME    = EARTH
REF_FRAME      = TEME
TIME_SYSTEM    = UTC
MEAN_ELEMENT_THEORY = SGP/SGP4

EPOCH          = 2025-11-28T00:00:02.000160
MEAN_MOTION    = 15.55260401
ECCENTRICITY   = .00011888
INCLINATION    = 53.1592
RA_OF_ASC_NODE = 334.2620
ARG_OF_PERICENTER = 83.9506
MEAN_ANOMALY   = 333.9033

EPHEMERIS_TYPE = 0
CLASSIFICATION_TYPE = U
NORAD_CAT_ID   = 66407
ELEMENT_SET_NO = 999
REV_AT_EPOCH   = 412
BSTAR          = -.32690163E-1
MEAN_MOTION_DOT = -.2014374E-1
MEAN_MOTION_DDOT = 0

CCSDS_OMM_VERS = 2.0
CREATION_DATE  = 
ORIGINATOR     = 

OBJECT_NAME    = STARLINK-35679
OBJECT_ID      = 2025-257AE
CENTER_NAME    = EARTH
REF_FRAME      = TEME
TIME_SYSTEM    = UTC
MEAN_ELEMENT_THEORY = SGP/SGP4

EPOCH          = 2025-11-28T00:00:02.000160
MEAN_MOTION    = 15.55262809
ECCENTRICITY   = .00010997
INCLINATION    = 53.1591
RA_OF_ASC_NODE = 334.2590
ARG_OF_PERICENTER = 83.4394
MEAN_ANOMALY   = 336.3297

EPHEMERIS_TYPE = 0
CLASSIFICATION_TYPE = U
NORAD_CAT_ID   = 66408
ELEMENT_SET_NO = 999
REV_AT_EPOCH   = 412
BSTAR          = -.32725237E-1
MEAN_MOTION_DOT = -.2016416E-1
MEAN_MOTION_DDOT = 0

CCSDS_OMM_VERS = 2.0
CREATION_DATE  = 
ORIGINATOR     = 

OBJECT_NAME    = CHUTIAN-2 A
OBJECT_ID      = 2025-256A
CENTER_NAME    = EARTH
REF_FRAME      = TEME
TIME_SYSTEM    = UTC
MEAN_ELEMENT_THEORY = SGP/SGP4

EPOCH          = 2025-11-27T22:58:59.460096
MEAN_MOTION    = 14.49907048
ECCENTRICITY   = .00128587
INCLINATION    = 98.2783
RA_OF_ASC_NODE = 36.9797
ARG_OF_PERICENTER = 223.5239
MEAN_ANOMALY   = 136.4941

EPHEMERIS_TYPE = 0
CLASSIFICATION_TYPE = U
NORAD_CAT_ID   = 66409
ELEMENT_SET_NO = 999
REV_AT_EPOCH   = 273
BSTAR          = .26671982E-4
MEAN_MOTION_DOT = .59E-6
MEAN_MOTION_DDOT = 0

CCSDS_OMM_VERS = 2.0
CREATION_DATE  = 
ORIGINATOR     = 

OBJECT_NAME    = CHUTIAN-2 B
OBJECT_ID      = 2025-256B
CENTER_NAME    = EARTH
REF_FRAME      = TEME
TIME_SYSTEM    = UTC
MEAN_ELEMENT_THEORY = SGP/SGP4

EPOCH          = 2025-11-28T00:27:25.475904
MEAN_MOTION    = 14.50994432
ECCENTRICITY   = .00129904
INCLINATION    = 98.2812
RA_OF_ASC_NODE = 37.0633
ARG_OF_PERICENTER = 227.5261
MEAN_ANOMALY   = 132.4837

EPHEMERIS_TYPE = 0
CLASSIFICATION_TYPE = U
NORAD_CAT_ID   = 66410
ELEMENT_SET_NO = 999
REV_AT_EPOCH   = 274
BSTAR          = .20608192E-3
MEAN_MOTION_DOT = .771E-5
MEAN_MOTION_DDOT = 0

